{"type": "FeatureCollection", "features": [ {"type": "Feature", "properties": {"norad_id": 34303, "name": "COSMOS 2251 DEB", "group": "cosmos-2251-debris", "lat": -25.067375389171094, "lon": 112.20554644157401, "alt_km": 792.9301569241215, "timestamp": "2025-12-14T14:39:29.763048+00:00", "meta": {"OBJECT_NAME": "COSMOS 2251 DEB", "OBJECT_ID": "1993-036MZ", "EPOCH": "2025-12-13T21:28:07.699584", "MEAN_MOTION": 14.54475192, "ECCENTRICITY": 0.01350416, "INCLINATION": 74.0053, "RA_OF_ASC_NODE": 285.8524, "ARG_OF_PERICENTER": 63.923, "MEAN_ANOMALY": 352.466, "EPHEMERIS_TYPE": 0, "CLASSIFICATION_TYPE": "U", "NORAD_CAT_ID": 34303, "ELEMENT_SET_NO": 999, "REV_AT_EPOCH": 87979, "BSTAR": 0.0016981145, "MEAN_MOTION_DOT": 8.148e-05, "MEAN_MOTION_DDOT": 0}, "tle": {"line1": "1 34303U 93036MZ  25347.89453356  .00008148  00000+0  16981-2 0  9995", "line2": "2 34303  74.0053 285.8524 0135041  63.9230 352.4660 14.54475192879793"}}, "geometry": {"type": "Point", "coordinates": [112.20554644157401, -25.067375389171094]}}, {"type": "Feature", "properties": {"norad_id": 34304, "name": "COSMOS 2251 DEB", "group": "cosmos-2251-debris", "lat": -22.860478596768353, "lon": -53.913714308735706, "alt_km": 714.1174234003147, "timestamp": "2025-12-14T14:39:29.763058+00:00", "meta": {"OBJECT_NAME": "COSMOS 2251 DEB", "OBJECT_ID": "1993-036NA", "EPOCH": "2025-12-13T19:56:03.653376", "MEAN_MOTION": 14.37874626, "ECCENTRICITY": 0.0128927, "INCLINATION": 74.013, "RA_OF_ASC_NODE": 120.5826, "ARG_OF_PERICENTER": 258.1498, "MEAN_ANOMALY": 229.9614, "EPHEMERIS_TYPE": 0, "CLASSIFICATION_TYPE": "U", "NORAD_CAT_ID": 34304, "ELEMENT_SET_NO": 999, "REV_AT_EPOCH": 87312, "BSTAR": 0.0017731974, "MEAN_MOTION_DOT": 5.866e-05, "MEAN_MOTION_DDOT": 0}, "tle": {"line1": "1 34304U 93036NA  25347.83059784  .00005866  00000+0  17732-2 0  9996", "line2": "2 34304  74.0130 120.5826 0128927 258.1498 229.9614 14.37874626873123"}}, "geometry": {"type": "Point", "coordinates": [-53.913714308735706, -22.860478596768353]}}, {"type": "Feature", "properties": {"norad_id": 34307, "name": "COSMOS 2251 DEB", "group": "cosmos-2251-debris", "lat": -30.613558106487904, "lon": 139.85358125408, "alt_km": 958.0612879214059, "timestamp": "2025-12-14T14:39:29.763068+00:00", "meta": {"OBJECT_NAME": "COSMOS 2251 DEB", "OBJECT_ID": "1993-036ND", "EPOCH": "2025-12-13T15:27:02.071008", "MEAN_MOTION": 13.54322102, "ECCENTRICITY": 0.03920322, "INCLINATION": 74.0534, "RA_OF_ASC_NODE": 311.6647, "ARG_OF_PERICENTER": 142.4072, "MEAN_ANOMALY": 32.4171, "EPHEMERIS_TYPE": 0, "CLASSIFICATION_TYPE": "U", "NORAD_CAT_ID": 34307, "ELEMENT_SET_NO": 999, "REV_AT_EPOCH": 82874, "BSTAR": 0.00082013934, "MEAN_MOTION_DOT": 8.94e-06, "MEAN_MOTION_DDOT": 0}, "tle": {"line1": "1 34307U 93036ND  25347.64377397  .00000894  00000+0  82014-3 0  9993", "line2": "2 34307  74.0534 311.6647 0392032 142.4072  32.4171 13.54322102828749"}}, "geometry": {"type": "Point", "coordinates": [139.85358125408, -30.613558106487904]}}, {"type": "Feature", "properties": {"norad_id": 34313, "name": "COSMOS 2251 DEB", "group": "cosmos-2251-debris", "lat": 24.112767214472964, "lon": -51.046618844134464, "alt_km": 501.70223446291493, "timestamp": "2025-12-14T14:39:29.763078+00:00", "meta": {"OBJECT_NAME": "COSMOS 2251 DEB", "OBJECT_ID": "1993-036NK", "EPOCH": "2025-12-13T22:44:45.155904", "MEAN_MOTION": 15.19377114, "ECCENTRICITY": 0.00113819, "INCLINATION": 73.9724, "RA_OF_ASC_NODE": 302.9541, "ARG_OF_PERICENTER": 79.2822, "MEAN_ANOMALY": 280.9655, "EPHEMERIS_TYPE": 0, "CLASSIFICATION_TYPE": "U", "NORAD_CAT_ID": 34313, "ELEMENT_SET_NO": 999, "REV_AT_EPOCH": 89083, "BSTAR": 0.0042114872, "MEAN_MOTION_DOT": 0.00090349, "MEAN_MOTION_DDOT": 0}, "tle": {"line1": "1 34313U 93036NK  25347.94774486  .00090349  00000+0  42115-2 0  9994", "line2": "2 34313  73.9724 302.9541 0011381  79.2822 280.9655 15.19377114890838"}}, "geometry": {"type": "Point", "coordinates": [-51.046618844134464, 24.112767214472964]}}, {"type": "Feature", "properties": {"norad_id": 34314, "name": "COSMOS 2251 DEB", "group": "cosmos-2251-debris", "lat": 72.1215339531583, "lon": 7.808963947390604, "alt_km": 763.4386183929882, "timestamp": "2025-12-14T14:39:29.763088+00:00", "meta": {"OBJECT_NAME": "COSMOS 2251 DEB", "OBJECT_ID": "1993-036NL", "EPOCH": "2025-12-13T23:22:34.967712", "MEAN_MOTION": 14.17427817, "ECCENTRICITY": 0.0102837, "INCLINATION": 74.0061, "RA_OF_ASC_NODE": 306.1806, "ARG_OF_PERICENTER": 51.5255, "MEAN_ANOMALY": 21.9308, "EPHEMERIS_TYPE": 0, "CLASSIFICATION_TYPE": "U", "NORAD_CAT_ID": 34314, "ELEMENT_SET_NO": 999, "REV_AT_EPOCH": 86675, "BSTAR": 0.00066379715, "MEAN_MOTION_DOT": 1.392e-05, "MEAN_MOTION_DDOT": 0}, "tle": {"line1": "1 34314U 93036NL  25347.97401583  .00001392  00000+0  66380-3 0  9994", "line2": "2 34314  74.0061 306.1806 0102837  51.5255  21.9308 14.17427817866750"}}, "geometry": {"type": "Point", "coordinates": [7.808963947390604, 72.1215339531583]}}, {"type": "Feature", "properties": {"norad_id": 34316, "name": "COSMOS 2251 DEB", "group": "cosmos-2251-debris", "lat": 50.7491854796513, "lon": -6.390447857488168, "alt_km": 581.1651581812357, "timestamp": "2025-12-14T14:39:29.763098+00:00", "meta": {"OBJECT_NAME": "COSMOS 2251 DEB", "OBJECT_ID": "1993-036NN", "EPOCH": "2025-12-13T23:56:04.771680", "MEAN_MOTION": 14.91885853, "ECCENTRICITY": 0.00083682, "INCLINATION": 74.0645, "RA_OF_ASC_NODE": 334.3693, "ARG_OF_PERICENTER": 58.2966, "MEAN_ANOMALY": 301.9031, "EPHEMERIS_TYPE": 0, "CLASSIFICATION_TYPE": "U", "NORAD_CAT_ID": 34316, "ELEMENT_SET_NO": 999, "REV_AT_EPOCH": 89228, "BSTAR": 0.0016015252, "MEAN_MOTION_DOT": 0.00016203, "MEAN_MOTION_DDOT": 0}, "tle": {"line1": "1 34316U 93036NN  25347.99727745  .00016203  00000+0  16015-2 0  9995", "line2": "2 34316  74.0645 334.3693 0008368  58.2966 301.9031 14.91885853892285"}}, "geometry": {"type": "Point", "coordinates": [-6.390447857488168, 50.7491854796513]}}, {"type": "Feature", "properties": {"norad_id": 34317, "name": "COSMOS 2251 DEB", "group": "cosmos-2251-debris", "lat": 25.691503461590557, "lon": 40.65247376353953, "alt_km": 767.9380624546866, "timestamp": "2025-12-14T14:39:29.763108+00:00", "meta": {"OBJECT_NAME": "COSMOS 2251 DEB", "OBJECT_ID": "1993-036NP", "EPOCH": "2025-12-13T12:28:19.156224", "MEAN_MOTION": 13.65122716, "ECCENTRICITY": 0.03365384, "INCLINATION": 73.9247, "RA_OF_ASC_NODE": 34.4743, "ARG_OF_PERICENTER": 23.5834, "MEAN_ANOMALY": 42.8611, "EPHEMERIS_TYPE": 0, "CLASSIFICATION_TYPE": "U", "NORAD_CAT_ID": 34317, "ELEMENT_SET_NO": 999, "REV_AT_EPOCH": 83630, "BSTAR": 0.00053173727, "MEAN_MOTION_DOT": 6.13e-06, "MEAN_MOTION_DDOT": 0}, "tle": {"line1": "1 34317U 93036NP  25347.51966616  .00000613  00000+0  53174-3 0  9992", "line2": "2 34317  73.9247  34.4743 0336538  23.5834  42.8611 13.65122716836306"}}, "geometry": {"type": "Point", "coordinates": [40.65247376353953, 25.691503461590557]}}, {"type": "Feature", "properties": {"norad_id": 34321, "name": "COSMOS 2251 DEB", "group": "cosmos-2251-debris", "lat": -70.38433498789408, "lon": 99.36901066288912, "alt_km": 721.1110497315722, "timestamp": "2025-12-14T14:39:29.763118+00:00", "meta": {"OBJECT_NAME": "COSMOS 2251 DEB", "OBJECT_ID": "1993-036NT", "EPOCH": "2025-12-13T21:30:01.441728", "MEAN_MOTION": 14.50062903, "ECCENTRICITY": 0.00158364, "INCLINATION": 74.0279, "RA_OF_ASC_NODE": 154.1895, "ARG_OF_PERICENTER": 283.6748, "MEAN_ANOMALY": 227.3938, "EPHEMERIS_TYPE": 0, "CLASSIFICATION_TYPE": "U", "NORAD_CAT_ID": 34321, "ELEMENT_SET_NO": 999, "REV_AT_EPOCH": 88503, "BSTAR": 0.00072843948, "MEAN_MOTION_DOT": 2.803e-05, "MEAN_MOTION_DDOT": 0}, "tle": {"line1": "1 34321U 93036NT  25347.89585002  .00002803  00000+0  72844-3 0  9992", "line2": "2 34321  74.0279 154.1895 0015836 283.6748 227.3938 14.50062903885036"}}, "geometry": {"type": "Point", "coordinates": [99.36901066288912, -70.38433498789408]}}, {"type": "Feature", "properties": {"norad_id": 34323, "name": "COSMOS 2251 DEB", "group": "cosmos-2251-debris", "lat": 70.79539451839695, "lon": -116.28267654270269, "alt_km": 620.1287521379882, "timestamp": "2025-12-14T14:39:29.763128+00:00", "meta": {"OBJECT_NAME": "COSMOS 2251 DEB", "OBJECT_ID": "1993-036NV", "EPOCH": "2025-12-13T19:12:43.531776", "MEAN_MOTION": 14.74482841, "ECCENTRICITY": 0.00588672, "INCLINATION": 73.9524, "RA_OF_ASC_NODE": 121.0318, "ARG_OF_PERICENTER": 164.8109, "MEAN_ANOMALY": 317.2185, "EPHEMERIS_TYPE": 0, "CLASSIFICATION_TYPE": "U", "NORAD_CAT_ID": 34323, "ELEMENT_SET_NO": 999, "REV_AT_EPOCH": 88455, "BSTAR": 0.0028484521, "MEAN_MOTION_DOT": 0.00019493, "MEAN_MOTION_DDOT": 0}, "tle": {"line1": "1 34323U 93036NV  25347.80050384  .00019493  00000+0  28485-2 0  9999", "line2": "2 34323  73.9524 121.0318 0058867 164.8109 317.2185 14.74482841884556"}}, "geometry": {"type": "Point", "coordinates": [-116.28267654270269, 70.79539451839695]}}, {"type": "Feature", "properties": {"norad_id": 34325, "name": "COSMOS 2251 DEB", "group": "cosmos-2251-debris", "lat": -24.12126918134995, "lon": 16.955349997700864, "alt_km": 744.0206129319185, "timestamp": "2025-12-14T14:39:29.763138+00:00", "meta": {"OBJECT_NAME": "COSMOS 2251 DEB", "OBJECT_ID": "1993-036NX", "EPOCH": "2025-12-13T22:53:37.582944", "MEAN_MOTION": 14.04482133, "ECCENTRICITY": 0.01921305, "INCLINATION": 73.8711, "RA_OF_ASC_NODE": 190.6677, "ARG_OF_PERICENTER": 207.7413, "MEAN_ANOMALY": 277.5148, "EPHEMERIS_TYPE": 0, "CLASSIFICATION_TYPE": "U", "NORAD_CAT_ID": 34325, "ELEMENT_SET_NO": 999, "REV_AT_EPOCH": 85532, "BSTAR": 0.0020445155, "MEAN_MOTION_DOT": 3.82e-05, "MEAN_MOTION_DDOT": 0}, "tle": {"line1": "1 34325U 93036NX  25347.95390721  .00003820  00000+0  20445-2 0  9994", "line2": "2 34325  73.8711 190.6677 0192130 207.7413 277.5148 14.04482133855329"}}, "geometry": {"type": "Point", "coordinates": [16.955349997700864, -24.12126918134995]}}]}